1 23560U 95021A   04293.11786295 -.00000169  00000-0 -46509-4 0  9996
2 23560 098.5404 005.0917 0001355 107.0522 253.0824 14.32253349496572
1 23560U 95021A   04293.46716243 -.00000071  00000-0 -10284-4 0  9993
2 23560 098.5401 005.4354 0001326 108.4831 251.6497 14.32253793496623
1 23560U 95021A   04293.60688208  .00000092  00000-0  50393-4 0  9994
2 23560 098.5404 005.5732 0001284 104.2455 255.8867 14.32254606496649
1 23560U 95021A   04293.60688253  .00000068  00000-0  41435-4 0  9994
2 23560 098.5403 005.5732 0001307 106.9035 253.2316 14.32254475496642
1 23560U 95021A   04293.81646253 -.00000015  00000-0  10558-4 0  9996
2 23560 098.5403 005.7798 0001268 102.3991 257.7328 14.32254080496670
1 23560U 95021A   04293.88632269 -.00000046  00000-0 -93931-6 0  9998
2 23560 098.5407 005.8482 0001284 104.0946 256.0383 14.32254014496683
1 23560U 95021A   04294.23562280  .00000254  00000-0  11041-3 0  9991
2 23560 098.5406 006.1922 0001314 108.2742 251.8640 14.32255339496735
1 23560U 95021A   04294.51506169  .00000202  00000-0  91106-4 0  9990
2 23560 098.5405 006.4674 0001260 106.6227 253.5099 14.32255317496778
1 23560U 95021A   04294.86436146  .00000177  00000-0  81706-4 0  9991
2 23560 098.5405 006.8112 0001312 106.7754 253.3561 14.32255272496821
1 23560U 95021A   04295.07394220  .00000003  00000-0  17256-4 0  9998
2 23560 098.5406 007.0172 0001336 108.7456 251.3878 14.32254548496855
1 23560U 95021A   04295.28352212  .00000003  00000-0  17256-4 0  9996
2 23560 098.5406 007.2236 0001336 108.1271 252.0060 14.32254553496887
1 23560U 95021A   04295.49310211  .00000109  00000-0  56613-4 0  9999
2 23560 098.5406 007.4299 0001336 107.5085 252.6258 14.32255098496918
1 23560U 95021A   04295.77254136  .00000150  00000-0  71853-4 0  9992
2 23560 098.5401 007.7053 0001302 106.7124 253.4191 14.32255354496956
1 23560U 95021A   04295.84240155  .00000131  00000-0  64727-4 0  9997
2 23560 098.5402 007.7741 0001308 107.1057 253.0262 14.32255218496962
1 23560U 95021A   04296.12184190  .00000076  00000-0  44243-4 0  9994
2 23560 098.5401 008.0492 0001314 106.5682 253.5652 14.32255050497000
1 23560U 95021A   04296.40128171 -.00000075  00000-0 -11852-4 0  9993
2 23560 098.5402 008.3245 0001259 107.1113 253.0196 14.32254459497048
1 23560U 95021A   04296.54100197 -.00000059  00000-0 -57072-5 0  9993
2 23560 098.5401 008.4624 0001189 104.0898 256.0421 14.32254514497065
1 23560U 95021A   04296.75058206 -.00000039  00000-0  16887-5 0  9995
2 23560 098.5403 008.6687 0001199 104.0312 256.1005 14.32254522497091
1 23560U 95021A   04296.89030207 -.00000381 +00000-0 -12509-3 0  9997
2 23560 098.5406 008.8060 0001299 104.1965 255.9286 14.32252729497115
1 23560U 95021A   04297.16974394 -.00000359  00000-0 -11685-3 0  9991
2 23560 098.5407 009.0811 0001300 105.9887 254.1450 14.32252676497157
1 23560U 95021A   04297.51904466 -.00000546  00000-0 -18638-3 0  9996
2 23560 098.5411 009.4259 0001184 102.6454 257.4862 14.32251564497200
1 23560U 95021A   04297.79848524 -.00000530  00000-0 -18039-3 0  9996
2 23560 098.5410 009.7008 0001254 103.5595 256.5717 14.32251283497249
1 23560U 95021A   04297.93820582 -.00000698 +00000-0 -24266-3 0  9990
2 23560 098.5414 009.8382 0001307 102.5628 257.5669 14.32250325497269
1 23560U 95021A   04298.14778713 -.00000731  00000-0 -25518-3 0  9991
2 23560 098.5416 010.0448 0001327 103.7988 256.3344 14.32249898497295
1 23560U 95021A   04298.49708835 -.00000731  00000-0 -25518-3 0  9997
2 23560 098.5416 010.3887 0001327 102.7674 257.3659 14.32249418497340
1 23560U 95021A   04298.84638869 -.00000676  00000-0 -23472-3 0  9990
2 23560 098.5414 010.7326 0001271 102.8509 257.2807 14.32249479497392
1 23560U 95021A   04299.19569016 -.00000618  00000-0 -21325-3 0  9997
2 23560 098.5416 011.0767 0001248 105.1646 254.9710 14.32249498497443
1 23560U 95021A   04299.54499033 -.00000393  00000-0 -12954-3 0  9995
2 23560 098.5415 011.4205 0001247 102.0358 258.0969 14.32250101497497
1 23560U 95021A   04299.82443010 -.00000047  00000-0 -13427-5 0  9994
2 23560 098.5416 011.6957 0001301 103.8194 256.3129 14.32251391497538
1 23560U 95021A   04300.10387085  .00000177  00000-0  81692-4 0  9997
2 23560 098.5420 011.9705 0001280 101.0716 259.0622 14.32252173497574
1 23560U 95021A   04300.17373077  .00000177  00000-0  81692-4 0  9990
2 23560 098.5420 012.0392 0001280 100.8655 259.2673 14.32252203497580
1 23560U 95021A   04300.52302934  .00000622  00000-0  24671-3 0  9991
2 23560 098.5434 012.3849 0001273 105.4343 254.6981 14.32254550497636
1 23560U 95021A   04300.80246322  .00002617  00000-0  98599-3 0  9996
2 23560 098.5441 012.6609 0001649 107.2352 252.9047 14.32264778497679
1 23560U 95021A   04300.87232204 -.00013507  00000-0 -49966-2 0  9992
2 23560 098.5579 012.7314 0001479 086.9511 273.2537 14.32318458497682
1 23560U 95021A   04301.22160993  .00000539  00000-0  21585-3 0  9994
2 23560 098.5438 013.0750 0000410 018.7686 341.3663 14.32261622497737
1 23560U 95021A   04301.50104372  .00000785  00000-0  30727-3 0  9995
2 23560 098.5455 013.3515 0000322 058.9164 301.2072 14.32263984497773
1 23560U 95021A   04301.85034093  .00000711  00000-0  27995-3 0  9997
2 23560 098.5462 013.6966 0000416 098.5851 261.5338 14.32263823497822
1 23560U 95021A   04301.92020130 +.00000642 +00000-0 +25418-3 0  9993
2 23560 098.5467 013.7659 0000528 105.6740 254.4454 14.32263231497832
1 23560U 95021A   04302.12978095  .00000603  00000-0  23980-3 0  9997
2 23560 098.5469 013.9725 0000576 104.3133 255.8079 14.32263086497864
1 23560U 95021A   04302.40922136  .00000522  00000-0  20959-3 0  9996
2 23560 098.5469 014.2479 0000688 106.7920 253.3336 14.32262522497906
1 23560U 95021A   04302.47908103  .00000375  00000-0  15538-3 0  9994
2 23560 098.5472 014.3170 0000526 113.1619 246.9564 14.32261256497912
1 23560U 95021A   04302.47908103  .00000375  00000-0  15538-3 0  9994
2 23560 098.5472 014.3170 0000526 113.1619 246.9564 14.32261256497912
1 23560U 95021A   04302.61880281  .00020427  00000-0  75692-2 0  9992
2 23560 098.5534 014.4555 0001269 097.6919 262.3908 14.32253456497932
1 23560U 95021A   04302.75852519 -.00000101  00000-0 -21400-4 0  9999
2 23560 098.5482 014.5924 0000209 149.4329 210.6911 14.32257254497951
1 23560U 95021A   04302.82838419 -.00000363  00000-0 -11828-3 0  9992
2 23560 098.5485 014.6619 0000454 169.6116 190.5007 14.32255087497961
1 23560U 95021A   04303.17768996 -.00001065  00000-0 -37905-3 0  9997
2 23560 098.5501 015.0058 0000891 149.8763 210.2376 14.32248695498018
1 23560U 95021A   04303.45713539 -.00001497  00000-0 -53905-3 0  9998
2 23560 098.5515 015.2815 0000714 151.1007 209.0192 14.32244819498057
1 23560U 95021A   04303.87630063 -.00001714  00000-0 -61975-3 0  9992
2 23560 098.5528 015.6946 0000963 150.2599 209.8659 14.32241967498116
1 23560U 95021A   04304.08588446 -.00001944  00000-0 -70508-3 0  9990
2 23560 098.5541 015.9010 0001053 135.5011 224.6250 14.32239506498143
1 23560U 95021A   04304.50505441 -.00003381  00000-0 -12390-2 0  9992
2 23560 098.5544 016.3155 0001276 118.4528 241.6844 14.32231304498204
1 23560U 95021A   04304.85435700 -.00001143  00000-0 -40789-3 0  9998
2 23560 098.5546 016.6599 0001655 104.8223 255.3171 14.32237217498252
1 23560U 95021A   04305.20365948 -.00000203  00000-0 -59269-4 0  9994
2 23560 098.5543 017.0046 0001554 102.5302 257.6092 14.32240097498305
1 23560U 95021A   04305.41324087 -.00000074  00000-0 -11386-4 0  9990
2 23560 098.5541 017.2111 0001534 099.7697 260.3671 14.32240568498330
1 23560U 95021A   04305.55296200  .00000034  00000-0  28816-4 0  9990
2 23560 098.5544 017.3488 0001544 095.3347 264.8012 14.32240988498352
1 23560U 95021A   04305.83240481 -.00000058  00000-0 -55033-5 0  9991
2 23560 098.5543 017.6244 0001549 093.2977 266.8373 14.32240635498390
1 23560U 95021A   04305.97212636 -.00000039  00000-0  18494-5 0  9995
2 23560 098.5543 017.7622 0001548 093.5438 266.5925 14.32240685498413
1 23560U 95021A   04306.25156897  .00000213  00000-0  95352-4 0  9993
2 23560 098.5543 018.0380 0001497 095.2658 264.8748 14.32241848498454
1 23560U 95021A   04306.53101040  .00000272  00000-0  11716-3 0  9990
2 23560 098.5544 018.3137 0001512 093.5832 266.5534 14.32242304498495
1 23560U 95021A   04306.81045247  .00000209  00000-0  93642-4 0  9996
2 23560 098.5542 018.5889 0001528 093.8949 266.2400 14.32242225498534
1 23560U 95021A   04306.88031325 +.00000181 +00000-0 +83509-4 0  9995
2 23560 098.5544 018.6577 0001550 094.6411 265.4938 14.32242027498547
